NORAD_CAT_ID,OBJECT_NAME,OBJECT_TYPE,EPOCH,MEAN_MOTION,ECCENTRICITY,INCLINATION,RA_OF_ASC_NODE,ARG_OF_PERICENTER,MEAN_ANOMALY,BSTAR,MEAN_MOTION_DOT,MEAN_MOTION_DDOT,TLE_LINE0,TLE_LINE1,TLE_LINE2,SEMIMAJOR_AXIS,PERIOD,APOGEE,PERIGEE,DECAYED
53834.0,STARLINK-4737,PAYLOAD,2024-05-31 12:11:49,15.08839592,0.0001233,53.2183,329.1012,81.9823,278.1309,5.9356e-05,6.57e-06,0.0,0 STARLINK-4737,1 53834U 22114S   24152.50820769  .00000657  00000-0  59356-4 0  9994,2 53834  53.2183 329.1012 0001233  81.9823 278.1309 15.08839592 95133,6917.882,95.438,540.6,538.894,0.0
53834.0,STARLINK-4737,PAYLOAD,2024-05-31 18:33:22,15.08833556,0.000128,53.2189,327.9118,96.6533,263.4605,4.6498e-05,4.52e-06,0.0,0 STARLINK-4737,1 53834U 22114S   24152.77317147  .00000452  00000-0  46498-4 0  9990,2 53834  53.2189 327.9118 0001280  96.6533 263.4605 15.08833556 94639,6917.9,95.438,540.651,538.88,0.0
53834.0,STARLINK-4737,PAYLOAD,2024-06-01 10:27:13,15.08831877,0.0001251,53.2185,324.9367,96.3856,263.7279,2.2781e-05,7.5e-07,0.0,0 STARLINK-4737,1 53834U 22114S   24153.43557458  .00000075  00000-0  22781-4 0  9995,2 53834  53.2185 324.9367 0001251  96.3856 263.7279 15.08831877 95276,6917.905,95.438,540.636,538.905,0.0
53834.0,STARLINK-4737,PAYLOAD,2024-06-02 03:56:27,15.08842948,0.0001223,53.2193,321.6669,93.8909,266.2223,3.8786e-05,3.3e-06,0.0,0 STARLINK-4737,1 53834U 22114S   24154.16420834  .00000330  00000-0  38786-4 0  9999,2 53834  53.2193 321.6669 0001223  93.8909 266.2223 15.08842948 94844,6917.871,95.437,540.582,538.89,0.0
53834.0,STARLINK-4737,PAYLOAD,2024-06-02 19:50:19,15.0883131,0.0001344,53.2206,318.6948,94.9857,265.1289,2.7283e-05,1.46e-06,0.0,0 STARLINK-4737,1 53834U 22114S   24154.82661850  .00000146  00000-0  27283-4 0  9992,2 53834  53.2206 318.6948 0001344  94.9857 265.1289 15.08831310 94945,6917.907,95.438,540.702,538.842,0.0
53834.0,STARLINK-4737,PAYLOAD,2024-06-03 03:47:15,15.08839302,0.0003008,53.2191,317.2058,79.2068,280.9263,9.9935e-05,1.302e-05,0.0,0 STARLINK-4737,1 53834U 22114S   24155.15781910  .00001302  00000-0  99935-4 0  9997,2 53834  53.2191 317.2058 0003008  79.2068 280.9263 15.08839302 94995,6917.883,95.438,541.828,537.667,0.0
53834.0,STARLINK-4737,PAYLOAD,2024-06-03 19:41:06,15.08839171,0.0002129,53.2191,314.2307,73.237,286.8856,3.7128e-05,3.03e-06,0.0,0 STARLINK-4737,1 53834U 22114S   24155.82021835  .00000303  00000-0  37128-4 0  9990,2 53834  53.2191 314.2307 0002129  73.2370 286.8856 15.08839171 95631,6917.883,95.438,541.221,538.275,0.0
53834.0,STARLINK-4737,PAYLOAD,2024-06-04 03:38:01,15.08850545,0.0001715,53.2193,312.7456,78.0705,282.0479,8.8388e-05,1.119e-05,0.0,0 STARLINK-4737,1 53834U 22114S   24156.15140622  .00001119  00000-0  88388-4 0  9993,2 53834  53.2193 312.7456 0001715  78.0705 282.0479 15.08850545 95149,6917.848,95.437,540.9,538.527,0.0
53834.0,STARLINK-4737,PAYLOAD,2024-06-04 09:59:34,15.08846445,0.0002309,53.2073,311.5574,81.3088,278.8166,0.0001298,1.778e-05,0.0,0 STARLINK-4737,1 53834U 22114S   24156.41636877  .00001778  00000-0  12980-3 0  9999,2 53834  53.2073 311.5574 0002309  81.3088 278.8166 15.08846445 95729,6917.861,95.437,541.323,538.128,0.0
53834.0,STARLINK-4737,PAYLOAD,2024-06-04 16:21:07,15.08832819,0.0001613,53.2127,310.3673,83.6762,276.4414,1.3659e-05,-7.1e-07,0.0,0 STARLINK-4737,1 53834U 22114S   24156.68134015 -.00000071  00000-0  13659-4 0  9996,2 53834  53.2127 310.3673 0001613  83.6762 276.4414 15.08832819 95222,6917.902,95.438,540.883,538.651,0.0
53834.0,STARLINK-4737,PAYLOAD,2024-06-05 09:50:22,15.08836362,0.0002347,53.2121,307.0955,87.4673,272.6587,-4.1657e-06,-3.55e-06,0.0,0 STARLINK-4737,1 53834U 22114S   24157.40997979 -.00000355  00000-0 -41657-5 0  9999,2 53834  53.2121 307.0955 0002347  87.4673 272.6587 15.08836362 95877,6917.892,95.438,541.38,538.133,0.0
53834.0,STARLINK-4737,PAYLOAD,2024-06-05 16:11:54,15.08834931,0.0002352,53.2125,305.9058,88.4699,271.6562,-1.4729e-05,-5.23e-06,0.0,0 STARLINK-4737,1 53834U 22114S   24157.67494181 -.00000523  00000-0 -14729-4 0  9991,2 53834  53.2125 305.9058 0002352  88.4699 271.6562 15.08834931 95914,6917.896,95.438,541.388,538.134,0.0
53834.0,STARLINK-4737,PAYLOAD,2024-06-06 16:02:41,15.08834902,0.0002065,53.2173,301.4455,98.5041,261.6186,0.00017655,2.522e-05,0.0,0 STARLINK-4737,1 53834U 22114S   24158.66853507  .00002522  00000-0  17655-3 0  9991,2 53834  53.2173 301.4455 0002065  98.5041 261.6186 15.08834902 95529,6917.896,95.438,541.19,538.332,0.0
53834.0,STARLINK-4737,PAYLOAD,2024-06-07 09:31:56,15.08830634,0.00017,53.2194,298.1757,99.5484,260.57,0.00015635,2.201e-05,0.0,0 STARLINK-4737,1 53834U 22114S   24159.39717871  .00002201  00000-0  15635-3 0  9995,2 53834  53.2194 298.1757 0001700  99.5484 260.5700 15.08830634 96176,6917.909,95.438,540.95,538.598,0.0
53834.0,STARLINK-4737,PAYLOAD,2024-06-07 15:53:29,15.08823473,0.0001539,53.2129,296.9842,95.0942,265.0226,3.4033e-05,2.53e-06,0.0,0 STARLINK-4737,1 53834U 22114S   24159.66214915  .00000253  00000-0  34033-4 0  9995,2 53834  53.2129 296.9842 0001539  95.0942 265.0226 15.08823473 95675,6917.931,95.439,540.861,538.731,0.0
53834.0,STARLINK-4737,PAYLOAD,2024-06-08 12:33:29,15.08838163,0.0001483,53.2207,293.1194,83.8246,276.2915,1.4178e-06,-2.65e-06,0.0,0 STARLINK-4737,1 53834U 22114S   24160.52325902 -.00000265  00000-0  14178-5 0  9994,2 53834  53.2207 293.1194 0001483  83.8246 276.2915 15.08838163 96347,6917.886,95.438,540.777,538.725,0.0
53834.0,STARLINK-4737,PAYLOAD,2024-06-08 18:55:01,15.08852512,0.0001824,53.2188,291.93,96.8136,263.3063,-4.5527e-05,-1.013e-05,0.0,0 STARLINK-4737,1 53834U 22114S   24160.78821542 -.00001013  00000-0 -45527-4 0  9997,2 53834  53.2188 291.9300 0001824  96.8136 263.3063 15.08852512 95840,6917.842,95.437,540.969,538.445,0.0
53834.0,STARLINK-4737,PAYLOAD,2024-06-09 01:16:33,15.08857413,8.58e-05,53.2195,290.7415,86.7127,273.3964,0.00019028,2.743e-05,0.0,0 STARLINK-4737,1 53834U 22114S   24161.05316301  .00002743  00000-0  19028-3 0  9995,2 53834  53.2195 290.7415 0000858  86.7127 273.3964 15.08857413 95886,6917.827,95.436,540.286,539.099,0.0
53834.0,STARLINK-4737,PAYLOAD,2024-06-09 12:24:17,15.08822741,0.0001439,53.2184,288.6589,89.3493,270.7664,1.7251e-05,-1.3e-07,0.0,0 STARLINK-4737,1 53834U 22114S   24161.51687391 -.00000013  00000-0  17251-4 0  9992,2 53834  53.2184 288.6589 0001439  89.3493 270.7664 15.08822741 95955,6917.933,95.439,540.794,538.803,0.0
53834.0,STARLINK-4737,PAYLOAD,2024-06-09 15:35:04,15.08825612,0.0001292,53.2174,288.066,75.3446,284.769,5.4297e-05,5.76e-06,0.0,0 STARLINK-4737,1 53834U 22114S   24161.64935259  .00000576  00000-0  54297-4 0  9999,2 53834  53.2174 288.0660 0001292  75.3446 284.7690 15.08825612 96515,6917.924,95.438,540.683,538.896,0.0
53834.0,STARLINK-4737,PAYLOAD,2024-06-10 01:07:21,15.08843322,0.0001195,53.2173,286.2804,73.7181,286.3942,0.00013708,1.895e-05,0.0,0 STARLINK-4737,1 53834U 22114S   24162.04677975  .00001895  00000-0  13708-3 0  9998,2 53834  53.2173 286.2804 0001195  73.7181 286.3942 15.08843322 96037,6917.87,95.437,540.562,538.909,0.0
53834.0,STARLINK-4737,PAYLOAD,2024-06-10 12:15:04,15.08839423,0.0001649,53.2211,284.2039,95.3236,264.7945,1.0307e-05,-1.24e-06,0.0,0 STARLINK-4737,1 53834U 22114S   24162.51046881 -.00000124  00000-0  10307-4 0  9994,2 53834  53.2211 284.2039 0001649  95.3236 264.7945 15.08839423 96101,6917.882,95.438,540.888,538.606,0.0
53834.0,STARLINK-4737,PAYLOAD,2024-06-10 15:25:50,15.08842112,0.000153,53.2195,283.6098,99.4658,260.6507,4.3233e-05,4e-06,0.0,0 STARLINK-4737,1 53834U 22114S   24162.64294561  .00000400  00000-0  43233-4 0  9998,2 53834  53.2195 283.6098 0001530  99.4658 260.6507 15.08842112 96661,6917.874,95.437,540.797,538.68,0.0
53834.0,STARLINK-4737,PAYLOAD,2024-06-11 00:58:08,15.08858393,0.0001386,53.22,281.8247,94.1386,265.9764,-2.5918e-05,-7.01e-06,0.0,0 STARLINK-4737,1 53834U 22114S   24163.04037499 -.00000701  00000-0 -25918-4 0  9994,2 53834  53.2200 281.8247 0001386  94.1386 265.9764 15.08858393 96181,6917.824,95.436,540.648,538.73,0.0
53834.0,STARLINK-4737,PAYLOAD,2024-06-11 13:41:15,15.08828577,0.0001806,53.2203,279.4446,85.9868,274.1331,9.8397e-05,1.278e-05,0.0,0 STARLINK-4737,1 53834U 22114S   24163.57031330  .00001278  00000-0  98397-4 0  9999,2 53834  53.2203 279.4446 0001806  85.9868 274.1331 15.08828577 96800,6917.915,95.438,541.03,538.531,0.0
53834.0,STARLINK-4737,PAYLOAD,2024-06-12 07:10:29,15.08826572,0.0001611,53.2194,276.1751,79.9743,280.1431,-1.4294e-05,-5.15e-06,0.0,0 STARLINK-4737,1 53834U 22114S   24164.29895589 -.00000515  00000-0 -14294-4 0  9992,2 53834  53.2194 276.1751 0001611  79.9743 280.1431 15.08826572 96374,6917.921,95.438,540.901,538.672,0.0
53834.0,STARLINK-4737,PAYLOAD,2024-06-12 15:07:25,15.08833417,0.0001332,53.2181,274.6865,78.6594,281.4547,-5.7105e-05,-1.196e-05,0.0,0 STARLINK-4737,1 53834U 22114S   24164.63015405 -.00001196  00000-0 -57105-4 0  9995,2 53834  53.2181 274.6865 0001332  78.6594 281.4547 15.08833417 96962,6917.901,95.438,540.687,538.844,0.0
53834.0,STARLINK-4737,PAYLOAD,2024-06-13 13:22:48,15.08841683,0.0001358,53.2177,270.5233,78.6667,281.4478,0.00013638,1.883e-05,0.0,0 STARLINK-4737,1 53834U 22114S   24165.55750435  .00001883  00000-0  13638-3 0  9999,2 53834  53.2177 270.5233 0001358  78.6667 281.4478 15.08841683 96563,6917.875,95.437,540.68,538.801,0.0
53834.0,STARLINK-4737,PAYLOAD,2024-06-14 13:13:36,15.08832941,0.0001231,53.2177,266.0615,82.6209,277.4923,6.521e-05,7.5e-06,0.0,0 STARLINK-4737,1 53834U 22114S   24166.55111131  .00000750  00000-0  65210-4 0  9990,2 53834  53.2177 266.0615 0001231  82.6209 277.4923 15.08832941 97258,6917.902,95.438,540.619,538.915,0.0
53834.0,STARLINK-4737,PAYLOAD,2024-06-15 13:04:22,15.08846896,0.0001242,53.2186,261.6004,85.9833,274.1302,4.6752e-05,4.56e-06,0.0,0 STARLINK-4737,1 53834U 22114S   24167.54470376  .00000456  00000-0  46752-4 0  9992,2 53834  53.2186 261.6004 0001242  85.9833 274.1302 15.08846896 96867,6917.859,95.437,540.584,538.865,0.0
